[{"OBJECT_NAME":"STARLINK-34941","OBJECT_ID":"2025-176N","EPOCH":"2026-03-09T11:55:46.994880","MEAN_MOTION":15.30183973,"ECCENTRICITY":0.00014456,"INCLINATION":53.1597,"RA_OF_ASC_NODE":153.4334,"ARG_OF_PERICENTER":60.8889,"MEAN_ANOMALY":299.2256,"EPHEMERIS_TYPE":0,"CLASSIFICATION_TYPE":"U","NORAD_CAT_ID":65210,"ELEMENT_SET_NO":999,"REV_AT_EPOCH":3309,"BSTAR":0.00089079008,"MEAN_MOTION_DOT":0.00026103,"MEAN_MOTION_DDOT":0},{"OBJECT_NAME":"CZ-6A DEB","OBJECT_ID":"2024-140RA","EPOCH":"2026-03-09T01:51:18.259488","MEAN_MOTION":15.31763252,"ECCENTRICITY":0.00411794,"INCLINATION":89.1856,"RA_OF_ASC_NODE":296.0787,"ARG_OF_PERICENTER":96.6516,"MEAN_ANOMALY":263.9425,"EPHEMERIS_TYPE":0,"CLASSIFICATION_TYPE":"U","NORAD_CAT_ID":61156,"ELEMENT_SET_NO":999,"REV_AT_EPOCH":8391,"BSTAR":0.0079173326,"MEAN_MOTION_DOT":0.00256788,"MEAN_MOTION_DDOT":0}]
